GLOBALSTAR M045         
1 25676U 99019A   25355.53858558 -.00000114  00000+0 -18288-3 0  9998
2 25676  51.9950 131.2726 0000922 124.0074 313.8548 12.27070627216397
GLOBALSTAR M019         
1 25677U 99019B   25355.53820443  .00000074  00000+0  17064-2 0  9994
2 25677  51.9883 274.8272 0001793   6.5293 164.4417 12.13878508207896
GLOBALSTAR M044         
1 25678U 99019C   25355.47659900 -.00000004  00000+0  11126-2 0  9993
2 25678  51.9962 249.7884 0006987  42.7136 128.4474 11.90262426193621
GLOBALSTAR M042         
1 25679U 99019D   25355.46689409 -.00000033  00000+0  55526-3 0  9995
2 25679  52.0006 242.2556 0003029 346.0781 184.8072 12.22094692208156
GLOBALSTAR M025         
1 25770U 99031A   25355.55527168 -.00000062  00000+0  15622-3 0  9999
2 25770  51.9829  85.2176 0002922 104.6931 268.6533 11.22559018502751
GLOBALSTAR M049         
1 25771U 99031B   25355.39216070 -.00000118  00000+0 -18478-2 0  9993
2 25771  51.9854 129.7657 0002279 351.2989   8.7768 11.12123047138257
GLOBALSTAR M047         
1 25772U 99031C   25355.53780395 -.00000077  00000+0 -20510-3 0  9991
2 25772  51.9825 108.5054 0016169 221.1015 138.8574 11.31931776492328
GLOBALSTAR M052         
1 25773U 99031D   25355.06685323  .00000012  00000+0  26224-2 0  9999
2 25773  51.9847 236.5525 0003389 104.1054  39.5713 11.15062676499359
